ONEWEB-0615             
1 54676U 22166AL  25212.82893947  .00000046  00000+0  81015-4 0  9995
2 54676  87.9272 307.9038 0001998  98.9673 261.1687 13.21826800129121
ONEWEB-0655             
1 54677U 22166AM  25212.72642921 -.00000012  00000+0 -59912-4 0  9995
2 54677  87.9271 307.9293 0002304 100.1029 260.0365 13.21824595129105
ONEWEB-0659             
1 54678U 22166AN  25213.19796031  .00000097  00000+0  20413-3 0  9994
2 54678  87.9270 307.8362 0001852  98.0022 262.1322 13.21826087129728
ONEWEB-0685             
1 54679U 22166AP  25212.82106566  .00000054  00000+0  98227-4 0  9994
2 54679  87.9272 307.9066 0002127 106.8278 253.3089 13.21825155129097
ONEWEB-0712             
1 54680U 22166AQ  25213.18880382 -.00000004  00000+0 -44003-4 0  9991
2 54680  87.9048 292.5478 0002596  94.6657 265.4770 13.16595640130417
ONEWEB-0714             
1 54681U 22166AR  25212.82736483  .00000097  00000+0  20296-3 0  9991
2 54681  87.9273 307.8985 0002174 104.0404 256.0972 13.21826674129215
ONEWEB-0532             
1 55140U 23004A   25212.65863858 -.00000031  00000+0 -11367-3 0  9991
2 55140  87.9039  69.6519 0001403  92.8567 267.2725 13.17649643125377
ONEWEB-0533             
1 55141U 23004B   25212.57519988 -.00000148  00000+0 -44545-3 0  9998
2 55141  87.8859  54.3983 0001892  91.2978 268.8367 13.12442191126008
ONEWEB-0541             
1 55142U 23004C   25212.65955617 -.00000181  00000+0 -54556-3 0  9991
2 55142  87.8809  84.9329 0001734  79.8043 280.3280 13.11415662123931
ONEWEB-0543             
1 55143U 23004D   25212.88909108 -.00000250  00000+0 -66636-3 0  9990
2 55143  87.9111  39.1412 0002088  87.4064 272.7307 13.18686715127480
ONEWEB-0544             
1 55144U 23004E   25212.88249211 -.00000130  00000+0 -36145-3 0  9992
2 55144  87.9112  39.1326 0001886  82.3324 277.8023 13.18685927127489
ONEWEB-0560             
1 55145U 23004F   25212.95177644  .00000034  00000+0  53793-4 0  9991
2 55145  87.9119  39.0941 0001892  80.7202 279.4144 13.18684384127504
ONEWEB-0565             
1 55146U 23004G   25212.94518631  .00000029  00000+0  40650-4 0  9998
2 55146  87.9109  39.1527 0001361  77.2309 282.8975 13.18686442127490
ONEWEB-0567             
1 55147U 23004H   25212.78683818 -.00000002  00000+0 -38967-4 0  9992
2 55147  87.9117  39.1418 0001631  77.3143 282.8171 13.18686446127476
ONEWEB-0569             
1 55148U 23004J   25212.90987161  .00000101  00000+0  24159-3 0  9990
2 55148  87.8969  23.8292 0001941  61.2677 298.8647 13.13470023128135
ONEWEB-0570             
1 55149U 23004K   25212.92867630  .00000055  00000+0  10797-3 0  9992
2 55149  87.9113  39.1158 0001250  98.0336 262.0938 13.18684376127488
ONEWEB-0571             
1 55150U 23004L   25212.84621044  .00000037  00000+0  61948-4 0  9997
2 55150  87.9110  39.1385 0001429  44.4307 315.6939 13.18686573127487
