[{"OBJECT_NAME":"ONEWEB-0615","OBJECT_ID":"2022-166AL","EPOCH":"2025-07-31T19:53:40.370208","MEAN_MOTION":13.218268,"ECCENTRICITY":0.0001998,"INCLINATION":87.9272,"RA_OF_ASC_NODE":307.9038,"ARG_OF_PERICENTER":98.9673,"MEAN_ANOMALY":261.1687,"EPHEMERIS_TYPE":0,"CLASSIFICATION_TYPE":"U","NORAD_CAT_ID":54676,"ELEMENT_SET_NO":999,"REV_AT_EPOCH":12912,"BSTAR":8.1015e-5,"MEAN_MOTION_DOT":4.6e-7,"MEAN_MOTION_DDOT":0},{"OBJECT_NAME":"ONEWEB-0655","OBJECT_ID":"2022-166AM","EPOCH":"2025-07-31T17:26:03.483744","MEAN_MOTION":13.21824595,"ECCENTRICITY":0.0002304,"INCLINATION":87.9271,"RA_OF_ASC_NODE":307.9293,"ARG_OF_PERICENTER":100.1029,"MEAN_ANOMALY":260.0365,"EPHEMERIS_TYPE":0,"CLASSIFICATION_TYPE":"U","NORAD_CAT_ID":54677,"ELEMENT_SET_NO":999,"REV_AT_EPOCH":12910,"BSTAR":-5.9912e-5,"MEAN_MOTION_DOT":-1.2e-7,"MEAN_MOTION_DDOT":0},{"OBJECT_NAME":"ONEWEB-0659","OBJECT_ID":"2022-166AN","EPOCH":"2025-08-01T04:45:03.770784","MEAN_MOTION":13.21826087,"ECCENTRICITY":0.0001852,"INCLINATION":87.927,"RA_OF_ASC_NODE":307.8362,"ARG_OF_PERICENTER":98.0022,"MEAN_ANOMALY":262.1322,"EPHEMERIS_TYPE":0,"CLASSIFICATION_TYPE":"U","NORAD_CAT_ID":54678,"ELEMENT_SET_NO":999,"REV_AT_EPOCH":12972,"BSTAR":0.00020413,"MEAN_MOTION_DOT":9.7e-7,"MEAN_MOTION_DDOT":0},{"OBJECT_NAME":"ONEWEB-0685","OBJECT_ID":"2022-166AP","EPOCH":"2025-07-31T19:42:20.073024","MEAN_MOTION":13.21825155,"ECCENTRICITY":0.0002127,"INCLINATION":87.9272,"RA_OF_ASC_NODE":307.9066,"ARG_OF_PERICENTER":106.8278,"MEAN_ANOMALY":253.3089,"EPHEMERIS_TYPE":0,"CLASSIFICATION_TYPE":"U","NORAD_CAT_ID":54679,"ELEMENT_SET_NO":999,"REV_AT_EPOCH":12909,"BSTAR":9.8227e-5,"MEAN_MOTION_DOT":5.4e-7,"MEAN_MOTION_DDOT":0},{"OBJECT_NAME":"ONEWEB-0712","OBJECT_ID":"2022-166AQ","EPOCH":"2025-08-01T04:31:52.650048","MEAN_MOTION":13.1659564,"ECCENTRICITY":0.0002596,"INCLINATION":87.9048,"RA_OF_ASC_NODE":292.5478,"ARG_OF_PERICENTER":94.6657,"MEAN_ANOMALY":265.477,"EPHEMERIS_TYPE":0,"CLASSIFICATION_TYPE":"U","NORAD_CAT_ID":54680,"ELEMENT_SET_NO":999,"REV_AT_EPOCH":13041,"BSTAR":-4.4003e-5,"MEAN_MOTION_DOT":-4.0e-8,"MEAN_MOTION_DDOT":0},{"OBJECT_NAME":"ONEWEB-0714","OBJECT_ID":"2022-166AR","EPOCH":"2025-07-31T19:51:24.321312","MEAN_MOTION":13.21826674,"ECCENTRICITY":0.0002174,"INCLINATION":87.9273,"RA_OF_ASC_NODE":307.8985,"ARG_OF_PERICENTER":104.0404,"MEAN_ANOMALY":256.0972,"EPHEMERIS_TYPE":0,"CLASSIFICATION_TYPE":"U","NORAD_CAT_ID":54681,"ELEMENT_SET_NO":999,"REV_AT_EPOCH":12921,"BSTAR":0.00020296,"MEAN_MOTION_DOT":9.7e-7,"MEAN_MOTION_DDOT":0},{"OBJECT_NAME":"ONEWEB-0532","OBJECT_ID":"2023-004A","EPOCH":"2025-07-31T15:48:26.373312","MEAN_MOTION":13.17649643,"ECCENTRICITY":0.0001403,"INCLINATION":87.9039,"RA_OF_ASC_NODE":69.6519,"ARG_OF_PERICENTER":92.8567,"MEAN_ANOMALY":267.2725,"EPHEMERIS_TYPE":0,"CLASSIFICATION_TYPE":"U","NORAD_CAT_ID":55140,"ELEMENT_SET_NO":999,"REV_AT_EPOCH":12537,"BSTAR":-0.00011367,"MEAN_MOTION_DOT":-3.1e-7,"MEAN_MOTION_DDOT":0},{"OBJECT_NAME":"ONEWEB-0533","OBJECT_ID":"2023-004B","EPOCH":"2025-07-31T13:48:17.269632","MEAN_MOTION":13.12442191,"ECCENTRICITY":0.0001892,"INCLINATION":87.8859,"RA_OF_ASC_NODE":54.3983,"ARG_OF_PERICENTER":91.2978,"MEAN_ANOMALY":268.8367,"EPHEMERIS_TYPE":0,"CLASSIFICATION_TYPE":"U","NORAD_CAT_ID":55141,"ELEMENT_SET_NO":999,"REV_AT_EPOCH":12600,"BSTAR":-0.00044545,"MEAN_MOTION_DOT":-1.48e-6,"MEAN_MOTION_DDOT":0},{"OBJECT_NAME":"ONEWEB-0541","OBJECT_ID":"2023-004C","EPOCH":"2025-07-31T15:49:45.653088","MEAN_MOTION":13.11415662,"ECCENTRICITY":0.0001734,"INCLINATION":87.8809,"RA_OF_ASC_NODE":84.9329,"ARG_OF_PERICENTER":79.8043,"MEAN_ANOMALY":280.328,"EPHEMERIS_TYPE":0,"CLASSIFICATION_TYPE":"U","NORAD_CAT_ID":55142,"ELEMENT_SET_NO":999,"REV_AT_EPOCH":12393,"BSTAR":-0.00054556,"MEAN_MOTION_DOT":-1.81e-6,"MEAN_MOTION_DDOT":0},{"OBJECT_NAME":"ONEWEB-0543","OBJECT_ID":"2023-004D","EPOCH":"2025-07-31T21:20:17.469312","MEAN_MOTION":13.18686715,"ECCENTRICITY":0.0002088,"INCLINATION":87.9111,"RA_OF_ASC_NODE":39.1412,"ARG_OF_PERICENTER":87.4064,"MEAN_ANOMALY":272.7307,"EPHEMERIS_TYPE":0,"CLASSIFICATION_TYPE":"U","NORAD_CAT_ID":55143,"ELEMENT_SET_NO":999,"REV_AT_EPOCH":12748,"BSTAR":-0.00066636,"MEAN_MOTION_DOT":-2.5e-6,"MEAN_MOTION_DDOT":0},{"OBJECT_NAME":"ONEWEB-0544","OBJECT_ID":"2023-004E","EPOCH":"2025-07-31T21:10:47.318304","MEAN_MOTION":13.18685927,"ECCENTRICITY":0.0001886,"INCLINATION":87.9112,"RA_OF_ASC_NODE":39.1326,"ARG_OF_PERICENTER":82.3324,"MEAN_ANOMALY":277.8023,"EPHEMERIS_TYPE":0,"CLASSIFICATION_TYPE":"U","NORAD_CAT_ID":55144,"ELEMENT_SET_NO":999,"REV_AT_EPOCH":12748,"BSTAR":-0.00036145,"MEAN_MOTION_DOT":-1.3e-6,"MEAN_MOTION_DDOT":0},{"OBJECT_NAME":"ONEWEB-0560","OBJECT_ID":"2023-004F","EPOCH":"2025-07-31T22:50:33.484416","MEAN_MOTION":13.18684384,"ECCENTRICITY":0.0001892,"INCLINATION":87.9119,"RA_OF_ASC_NODE":39.0941,"ARG_OF_PERICENTER":80.7202,"MEAN_ANOMALY":279.4144,"EPHEMERIS_TYPE":0,"CLASSIFICATION_TYPE":"U","NORAD_CAT_ID":55145,"ELEMENT_SET_NO":999,"REV_AT_EPOCH":12750,"BSTAR":5.3793e-5,"MEAN_MOTION_DOT":3.4e-7,"MEAN_MOTION_DDOT":0},{"OBJECT_NAME":"ONEWEB-0565","OBJECT_ID":"2023-004G","EPOCH":"2025-07-31T22:41:04.097184","MEAN_MOTION":13.18686442,"ECCENTRICITY":0.0001361,"INCLINATION":87.9109,"RA_OF_ASC_NODE":39.1527,"ARG_OF_PERICENTER":77.2309,"MEAN_ANOMALY":282.8975,"EPHEMERIS_TYPE":0,"CLASSIFICATION_TYPE":"U","NORAD_CAT_ID":55146,"ELEMENT_SET_NO":999,"REV_AT_EPOCH":12749,"BSTAR":4.065e-5,"MEAN_MOTION_DOT":2.9e-7,"MEAN_MOTION_DDOT":0},{"OBJECT_NAME":"ONEWEB-0567","OBJECT_ID":"2023-004H","EPOCH":"2025-07-31T18:53:02.818752","MEAN_MOTION":13.18686446,"ECCENTRICITY":0.0001631,"INCLINATION":87.9117,"RA_OF_ASC_NODE":39.1418,"ARG_OF_PERICENTER":77.3143,"MEAN_ANOMALY":282.8171,"EPHEMERIS_TYPE":0,"CLASSIFICATION_TYPE":"U","NORAD_CAT_ID":55147,"ELEMENT_SET_NO":999,"REV_AT_EPOCH":12747,"BSTAR":-3.8967e-5,"MEAN_MOTION_DOT":-2.0e-8,"MEAN_MOTION_DDOT":0},{"OBJECT_NAME":"ONEWEB-0569","OBJECT_ID":"2023-004J","EPOCH":"2025-07-31T21:50:12.907104","MEAN_MOTION":13.13470023,"ECCENTRICITY":0.0001941,"INCLINATION":87.8969,"RA_OF_ASC_NODE":23.8292,"ARG_OF_PERICENTER":61.2677,"MEAN_ANOMALY":298.8647,"EPHEMERIS_TYPE":0,"CLASSIFICATION_TYPE":"U","NORAD_CAT_ID":55148,"ELEMENT_SET_NO":999,"REV_AT_EPOCH":12813,"BSTAR":0.00024159,"MEAN_MOTION_DOT":1.01e-6,"MEAN_MOTION_DDOT":0},{"OBJECT_NAME":"ONEWEB-0570","OBJECT_ID":"2023-004K","EPOCH":"2025-07-31T22:17:17.632320","MEAN_MOTION":13.18684376,"ECCENTRICITY":0.000125,"INCLINATION":87.9113,"RA_OF_ASC_NODE":39.1158,"ARG_OF_PERICENTER":98.0336,"MEAN_ANOMALY":262.0938,"EPHEMERIS_TYPE":0,"CLASSIFICATION_TYPE":"U","NORAD_CAT_ID":55149,"ELEMENT_SET_NO":999,"REV_AT_EPOCH":12748,"BSTAR":0.00010797,"MEAN_MOTION_DOT":5.5e-7,"MEAN_MOTION_DDOT":0},{"OBJECT_NAME":"ONEWEB-0571","OBJECT_ID":"2023-004L","EPOCH":"2025-07-31T20:18:32.582016","MEAN_MOTION":13.18686573,"ECCENTRICITY":0.0001429,"INCLINATION":87.911,"RA_OF_ASC_NODE":39.1385,"ARG_OF_PERICENTER":44.4307,"MEAN_ANOMALY":315.6939,"EPHEMERIS_TYPE":0,"CLASSIFICATION_TYPE":"U","NORAD_CAT_ID":55150,"ELEMENT_SET_NO":999,"REV_AT_EPOCH":12748,"BSTAR":6.1948e-5,"MEAN_MOTION_DOT":3.7e-7,"MEAN_MOTION_DDOT":0}]
